CELESTIS-17 & SHERPA-FX1
1 47486U 21006CB  26068.64311433  .00007207  00000+0  24301-3 0  9993
2 47486  97.2397 112.1052 0006630 178.1385 181.9882 15.30994801284065
STARLINK-32308          
1 61663U 24193C   26068.44636720  .00004453  00000+0  16242-3 0  9998
2 61663  53.1602  91.8332 0001101  88.1273 271.9854 15.30190514 76490
